start=new Date('2022-12-24T00:00:00.000Z').valueOf();
sats=[{"TLE_LINE1":"1 47819U 21018AJ  22357.59696972  .00005903  00000-0  41483-3 0  9993","RCS_SIZE":"MEDIUM","EPOCH":"2022-12-23T14:19:38.183808","COUNTRY_CODE":"US","OBJECT_TYPE":"PAYLOAD","PERIAPSIS":"546.084","FILE":"3720302","CLASSIFICATION_TYPE":"U","TLE_LINE2":"2 47819  53.0545 113.3414 0001627  58.3620 301.7528 15.06400810 99997","MEAN_MOTION_DOT":"0.00005903","SITE":"AFETR","SEMIMAJOR_AXIS":"6925.346","OBJECT_ID":"2021-018AJ","MEAN_ANOMALY":"301.7528","LAUNCH_DATE":"2021-03-11","OBJECT_NAME":"STARLINK-2402","GP_ID":"221275220","ELEMENT_SET_NO":"999","MEAN_MOTION":"15.06400810","ECCENTRICITY":"0.00016270","APOAPSIS":"548.338","INCLINATION":"53.0545","DECAY_DATE":null,"REF_FRAME":"TEME","EPHEMERIS_TYPE":"0","NORAD_CAT_ID":"47819","RA_OF_ASC_NODE":"113.3414","ARG_OF_PERICENTER":"58.3620","MEAN_MOTION_DDOT":"0.0000000000000","MEAN_ELEMENT_THEORY":"SGP4","REV_AT_EPOCH":"9999","BSTAR":"0.00041483000000","PERIOD":"95.592","TIME_SYSTEM":"UTC","CENTER_NAME":"EARTH"},{"NORAD_CAT_ID":"47820","EPHEMERIS_TYPE":"0","REF_FRAME":"TEME","INCLINATION":"53.0535","DECAY_DATE":null,"ELEMENT_SET_NO":"999","MEAN_MOTION":"15.06398450","APOAPSIS":"548.134","ECCENTRICITY":"0.00013220","GP_ID":"221304595","PERIOD":"95.592","TIME_SYSTEM":"UTC","CENTER_NAME":"EARTH","BSTAR":"-0.00001066300000","MEAN_ELEMENT_THEORY":"SGP4","MEAN_MOTION_DDOT":"0.0000000000000","REV_AT_EPOCH":"9985","RA_OF_ASC_NODE":"123.1383","ARG_OF_PERICENTER":"62.8454","TLE_LINE2":"2 47820  53.0535 123.1383 0001322  62.8454 297.2670 15.06398450 99857","MEAN_MOTION_DOT":"-0.00000440","CLASSIFICATION_TYPE":"U","OBJECT_TYPE":"PAYLOAD","PERIAPSIS":"546.303","FILE":"3720518","TLE_LINE1":"1 47820U 21018AK  22357.64490326 -.00000440  00000-0 -10663-4 0  9996","COUNTRY_CODE":"US","RCS_SIZE":"LARGE","EPOCH":"2022-12-23T15:28:39.641664","OBJECT_NAME":"STARLINK-2403","LAUNCH_DATE":"2021-03-11","MEAN_ANOMALY":"297.2670","OBJECT_ID":"2021-018AK","SEMIMAJOR_AXIS":"6925.353","SITE":"AFETR"},{"MEAN_MOTION_DOT":"0.00002117","TLE_LINE2":"2 47821  53.0532 112.9446 0001248  50.1546 309.9553 15.06397700 99948","CLASSIFICATION_TYPE":"U","FILE":"3720518","OBJECT_TYPE":"PAYLOAD","PERIAPSIS":"546.356","COUNTRY_CODE":"US","EPOCH":"2022-12-23T16:33:40.470336","RCS_SIZE":"LARGE","TLE_LINE1":"1 47821U 21018AL  22357.69005174  .00002117  00000-0  16095-3 0  9990","OBJECT_NAME":"STARLINK-2406","LAUNCH_DATE":"2021-03-11","MEAN_ANOMALY":"309.9553","OBJECT_ID":"2021-018AL","SITE":"AFETR","SEMIMAJOR_AXIS":"6925.356","EPHEMERIS_TYPE":"0","NORAD_CAT_ID":"47821","REF_FRAME":"TEME","DECAY_DATE":null,"INCLINATION":"53.0532","APOAPSIS":"548.085","ECCENTRICITY":"0.00012480","MEAN_MOTION":"15.06397700","ELEMENT_SET_NO":"999","GP_ID":"221305847","CENTER_NAME":"EARTH","TIME_SYSTEM":"UTC","PERIOD":"95.592","BSTAR":"0.00016095000000","REV_AT_EPOCH":"9994","MEAN_ELEMENT_THEORY":"SGP4","MEAN_MOTION_DDOT":"0.0000000000000","ARG_OF_PERICENTER":"50.1546","RA_OF_ASC_NODE":"112.9446"},{"OBJECT_ID":"2021-018AM","SEMIMAJOR_AXIS":"6925.320","SITE":"AFETR","OBJECT_NAME":"STARLINK-2407","LAUNCH_DATE":"2021-03-11","MEAN_ANOMALY":"282.7887","FILE":"3720518","OBJECT_TYPE":"PAYLOAD","PERIAPSIS":"546.019","COUNTRY_CODE":"US","RCS_SIZE":"LARGE","EPOCH":"2022-12-23T16:46:53.935104","TLE_LINE1":"1 47822U 21018AM  22357.69923536 -.00002550  00000-0 -15229-3 0  9993","MEAN_MOTION_DOT":"-0.00002550","TLE_LINE2":"2 47822  53.0551 122.8824 0001684  77.3290 282.7887 15.06409392 99816","CLASSIFICATION_TYPE":"U","REV_AT_EPOCH":"9981","MEAN_ELEMENT_THEORY":"SGP4","MEAN_MOTION_DDOT":"0.0000000000000","ARG_OF_PERICENTER":"77.3290","RA_OF_ASC_NODE":"122.8824","TIME_SYSTEM":"UTC","CENTER_NAME":"EARTH","PERIOD":"95.592","BSTAR":"-0.00015229000000","APOAPSIS":"548.351","ECCENTRICITY":"0.00016840","ELEMENT_SET_NO":"999","MEAN_MOTION":"15.06409392","GP_ID":"221306076","EPHEMERIS_TYPE":"0","NORAD_CAT_ID":"47822","REF_FRAME":"TEME","DECAY_DATE":null,"INCLINATION":"53.0551"},{"PERIOD":"95.593","CENTER_NAME":"EARTH","TIME_SYSTEM":"UTC","BSTAR":"0.00009798600000","MEAN_MOTION_DDOT":"0.0000000000000","MEAN_ELEMENT_THEORY":"SGP4","REV_AT_EPOCH":"9963","RA_OF_ASC_NODE":"112.2202","ARG_OF_PERICENTER":"60.7935","REF_FRAME":"TEME","EPHEMERIS_TYPE":"0","NORAD_CAT_ID":"47823","INCLINATION":"53.0557","DECAY_DATE":null,"MEAN_MOTION":"15.06391391","ELEMENT_SET_NO":"999","ECCENTRICITY":"0.00017400","APOAPSIS":"548.445","GP_ID":"221282504","LAUNCH_DATE":"2021-03-11","OBJECT_NAME":"STARLINK-2408","MEAN_ANOMALY":"299.3228","OBJECT_ID":"2021-018AN","SITE":"AFETR","SEMIMAJOR_AXIS":"6925.375","TLE_LINE2":"2 47823  53.0557 112.2202 0001740  60.7935 299.3228 15.06391391 99633","MEAN_MOTION_DOT":"0.00001178","CLASSIFICATION_TYPE":"U","PERIAPSIS":"546.035","OBJECT_TYPE":"PAYLOAD","FILE":"3720465","TLE_LINE1":"1 47823U 21018AN  22357.84760954  .00001178  00000-0  97986-4 0  9998","EPOCH":"2022-12-23T20:20:33.464256","RCS_SIZE":"LARGE","COUNTRY_CODE":"US"},{"GP_ID":"221305096","APOAPSIS":"548.354","ECCENTRICITY":"0.00016060","MEAN_MOTION":"15.06390774","ELEMENT_SET_NO":"999","DECAY_DATE":null,"INCLINATION":"53.0548","EPHEMERIS_TYPE":"0","NORAD_CAT_ID":"47824","REF_FRAME":"TEME","ARG_OF_PERICENTER":"53.1400","RA_OF_ASC_NODE":"112.8746","REV_AT_EPOCH":"9994","MEAN_ELEMENT_THEORY":"SGP4","MEAN_MOTION_DDOT":"0.0000000000000","BSTAR":"0.00018190000000","TIME_SYSTEM":"UTC","CENTER_NAME":"EARTH","PERIOD":"95.593","COUNTRY_CODE":"US","EPOCH":"2022-12-23T16:54:54.440928","RCS_SIZE":"LARGE","TLE_LINE1":"1 47824U 21018AP  22357.70479677  .00002428  00000-0  18190-3 0  9991","FILE":"3720518","OBJECT_TYPE":"PAYLOAD","PERIAPSIS":"546.130","CLASSIFICATION_TYPE":"U","MEAN_MOTION_DOT":"0.00002428","TLE_LINE2":"2 47824  53.0548 112.8746 0001606  53.1400 306.9736 15.06390774 99944","SEMIMAJOR_AXIS":"6925.377","SITE":"AFETR","OBJECT_ID":"2021-018AP","MEAN_ANOMALY":"306.9736","OBJECT_NAME":"STARLINK-2409","LAUNCH_DATE":"2021-03-11"},{"PERIOD":"95.592","CENTER_NAME":"EARTH","TIME_SYSTEM":"UTC","BSTAR":"0.00017289000000","MEAN_MOTION_DDOT":"0.0000000000000","MEAN_ELEMENT_THEORY":"SGP4","REV_AT_EPOCH":"9993","RA_OF_ASC_NODE":"113.3872","ARG_OF_PERICENTER":"86.1030","REF_FRAME":"TEME","NORAD_CAT_ID":"47825","EPHEMERIS_TYPE":"0","INCLINATION":"53.0533","DECAY_DATE":null,"ELEMENT_SET_NO":"999","MEAN_MOTION":"15.06402104","ECCENTRICITY":"0.00010440","APOAPSIS":"547.930","GP_ID":"221274722","LAUNCH_DATE":"2021-03-11","OBJECT_NAME":"STARLINK-2410","MEAN_ANOMALY":"274.0078","OBJECT_ID":"2021-018AQ","SITE":"AFETR","SEMIMAJOR_AXIS":"6925.342","TLE_LINE2":"2 47825  53.0533 113.3872 0001044  86.1030 274.0078 15.06402104 99930","MEAN_MOTION_DOT":"0.00002295","CLASSIFICATION_TYPE":"U","OBJECT_TYPE":"PAYLOAD","PERIAPSIS":"546.484","FILE":"3720302","TLE_LINE1":"1 47825U 21018AQ  22357.59053647  .00002295  00000-0  17289-3 0  9994","RCS_SIZE":"LARGE","EPOCH":"2022-12-23T14:10:22.351008","COUNTRY_CODE":"US"},{"BSTAR":"0.00011292000000","PERIOD":"95.592","CENTER_NAME":"EARTH","TIME_SYSTEM":"UTC","RA_OF_ASC_NODE":"113.1057","ARG_OF_PERICENTER":"72.8266","MEAN_ELEMENT_THEORY":"SGP4","MEAN_MOTION_DDOT":"0.0000000000000","REV_AT_EPOCH":"9994","INCLINATION":"53.0538","DECAY_DATE":null,"NORAD_CAT_ID":"47826","EPHEMERIS_TYPE":"0","REF_FRAME":"TEME","GP_ID":"221305576","MEAN_MOTION":"15.06404381","ELEMENT_SET_NO":"999","APOAPSIS":"548.278","ECCENTRICITY":"0.00015560","MEAN_ANOMALY":"287.2894","OBJECT_NAME":"STARLINK-2411","LAUNCH_DATE":"2021-03-11","SITE":"AFETR","SEMIMAJOR_AXIS":"6925.335","OBJECT_ID":"2021-018AR","CLASSIFICATION_TYPE":"U","TLE_LINE2":"2 47826  53.0538 113.1057 0001556  72.8266 287.2894 15.06404381 99942","MEAN_MOTION_DOT":"0.00001401","TLE_LINE1":"1 47826U 21018AR  22357.65319640  .00001401  00000-0  11292-3 0  9996","COUNTRY_CODE":"US","RCS_SIZE":"LARGE","EPOCH":"2022-12-23T15:40:36.168960","OBJECT_TYPE":"PAYLOAD","PERIAPSIS":"546.123","FILE":"3720518"},{"TLE_LINE2":"2 47827  53.0561 102.8082 0001711  67.6797 292.4373 15.06380330100159","MEAN_MOTION_DOT":"0.00000606","CLASSIFICATION_TYPE":"U","OBJECT_TYPE":"PAYLOAD","PERIAPSIS":"546.089","FILE":"3720518","TLE_LINE1":"1 47827U 21018AS  22357.76840968  .00000606  00000-0  59629-4 0  9994","COUNTRY_CODE":"US","EPOCH":"2022-12-23T18:26:30.596352","RCS_SIZE":"LARGE","OBJECT_NAME":"STARLINK-2413","LAUNCH_DATE":"2021-03-11","MEAN_ANOMALY":"292.4373","OBJECT_ID":"2021-018AS","SEMIMAJOR_AXIS":"6925.409","SITE":"AFETR","NORAD_CAT_ID":"47827","EPHEMERIS_TYPE":"0","REF_FRAME":"TEME","INCLINATION":"53.0561","DECAY_DATE":null,"ELEMENT_SET_NO":"999","MEAN_MOTION":"15.06380330","APOAPSIS":"548.459","ECCENTRICITY":"0.00017110","GP_ID":"221304346","PERIOD":"95.593","TIME_SYSTEM":"UTC","CENTER_NAME":"EARTH","BSTAR":"0.00005962900000","MEAN_ELEMENT_THEORY":"SGP4","MEAN_MOTION_DDOT":"0.0000000000000","REV_AT_EPOCH":"10015","RA_OF_ASC_NODE":"102.8082","ARG_OF_PERICENTER":"67.6797"},{"GP_ID":"221304596","MEAN_MOTION":"15.06404241","ELEMENT_SET_NO":"999","ECCENTRICITY":"0.00016080","APOAPSIS":"548.314","INCLINATION":"53.0544","DECAY_DATE":null,"REF_FRAME":"TEME","EPHEMERIS_TYPE":"0","NORAD_CAT_ID":"47828","RA_OF_ASC_NODE":"122.8768","ARG_OF_PERICENTER":"75.6485","MEAN_MOTION_DDOT":"0.0000000000000","MEAN_ELEMENT_THEORY":"SGP4","REV_AT_EPOCH":"9981","BSTAR":"0.00008266400000","PERIOD":"95.592","CENTER_NAME":"EARTH","TIME_SYSTEM":"UTC","TLE_LINE1":"1 47828U 21018AT  22357.70388186  .00000950  00000-0  82664-4 0  9995","RCS_SIZE":"LARGE","EPOCH":"2022-12-23T16:53:35.392704","COUNTRY_CODE":"US","OBJECT_TYPE":"PAYLOAD","PERIAPSIS":"546.087","FILE":"3720518","CLASSIFICATION_TYPE":"U","TLE_LINE2":"2 47828  53.0544 122.8768 0001608  75.6485 284.4682 15.06404241 99814","MEAN_MOTION_DOT":"0.00000950","SITE":"AFETR","SEMIMAJOR_AXIS":"6925.336","OBJECT_ID":"2021-018AT","MEAN_ANOMALY":"284.4682","LAUNCH_DATE":"2021-03-11","OBJECT_NAME":"STARLINK-2415"}];
